OBJECT_NAME,OBJECT_ID,EPOCH,MEAN_MOTION,ECCENTRICITY,INCLINATION,RA_OF_ASC_NODE,ARG_OF_PERICENTER,MEAN_ANOMALY,EPHEMERIS_TYPE,CLASSIFICATION_TYPE,NORAD_CAT_ID,ELEMENT_SET_NO,REV_AT_EPOCH,BSTAR,MEAN_MOTION_DOT,MEAN_MOTION_DDOT
HAWK-5A,2022-057AB,2026-06-09T05:43:27.588864,15.51105042,.00059565,97.6597,318.5760,102.6975,257.4942,0,U,52757,999,22511,.29905497E-3,.1735E-3,0
HAWK-6B,2023-011A,2026-06-08T23:39:39.606912,15.22854927,.0003807,40.4989,39.9045,316.2141,43.8366,0,U,55324,999,18659,.16519001E-3,.3756E-4,0
HAWK-6C,2023-011C,2026-06-08T23:38:42.630432,15.22863697,.00043824,40.4980,36.7470,306.7645,53.2761,0,U,55326,999,18660,.17554105E-3,.4005E-4,0
HAWK-6A,2023-011D,2026-06-08T23:38:46.511520,15.22856626,.00040343,40.4991,38.3707,304.4298,55.6129,0,U,55327,999,18660,.17018096E-3,.3875E-4,0
HAWK-7A,2023-054P,2026-06-09T04:23:21.192288,15.27271822,.00048178,97.2719,47.7255,79.4079,280.7703,0,U,56191,999,17580,.58825925E-4,.15E-4,0
HAWK-7B,2023-054R,2026-06-09T04:23:13.888896,15.27279046,.00040111,97.2739,45.9844,84.5267,275.6430,0,U,56193,999,17580,.18432591E-3,.4855E-4,0
HAWK-7C,2023-054Y,2026-06-09T04:23:04.306272,15.27275910,.00041026,97.2716,46.7555,76.7326,283.4371,0,U,56200,999,17580,.18241028E-3,.4803E-4,0
